[
  {
    "COMMENT": "GENERATED VIA SPACETRACK.ORG API",
    "ORIGINATOR": "18 SPCS",
    "NORAD_CAT_ID": "41240",
    "OBJECT_NAME": "JASON 3",
    "OBJECT_TYPE": "PAYLOAD",
    "CLASSIFICATION_TYPE": "U",
    "INTLDES": "16002A",
    "EPOCH": "2023-04-04 22:24:27",
    "EPOCH_MICROSECONDS": "398016",
    "MEAN_MOTION": "12.80928018",
    "ECCENTRICITY": "0.0007957",
    "INCLINATION": "66.0433",
    "RA_OF_ASC_NODE": "43.6611",
    "ARG_OF_PERICENTER": "274.0124",
    "MEAN_ANOMALY": "85.9982",
    "EPHEMERIS_TYPE": "0",
    "ELEMENT_SET_NO": "999",
    "REV_AT_EPOCH": "33724",
    "BSTAR": "0.000038485",
    "MEAN_MOTION_DOT": "-0.00000052",
    "MEAN_MOTION_DDOT": "0",
    "FILE": "3880211",
    "TLE_LINE0": "0 JASON 3",
    "TLE_LINE1": "1 41240U 16002A   23094.93365044 -.00000052  00000-0  38485-4 0  9992",
    "TLE_LINE2": "2 41240  66.0433  43.6611 0007957 274.0124  85.9982 12.80928018337243",
    "OBJECT_ID": "2016-002A",
    "OBJECT_NUMBER": "41240",
    "SEMIMAJOR_AXIS": "7715.878",
    "PERIOD": "112.418",
    "APOGEE": "1343.883",
    "PERIGEE": "1331.604",
    "DECAYED": "0"
  },
  {
    "COMMENT": "GENERATED VIA SPACETRACK.ORG API",
    "ORIGINATOR": "18 SPCS",
    "NORAD_CAT_ID": "41240",
    "OBJECT_NAME": "JASON 3",
    "OBJECT_TYPE": "PAYLOAD",
    "CLASSIFICATION_TYPE": "U",
    "INTLDES": "16002A",
    "EPOCH": "2023-04-05 05:54:10",
    "EPOCH_MICROSECONDS": "488672",
    "MEAN_MOTION": "12.80928007",
    "ECCENTRICITY": "0.0007953",
    "INCLINATION": "66.0434",
    "RA_OF_ASC_NODE": "43.0125",
    "ARG_OF_PERICENTER": "274.0222",
    "MEAN_ANOMALY": "85.9884",
    "EPHEMERIS_TYPE": "0",
    "ELEMENT_SET_NO": "999",
    "REV_AT_EPOCH": "33742",
    "BSTAR": "0.000054823",
    "MEAN_MOTION_DOT": "-0.00000048",
    "MEAN_MOTION_DDOT": "0",
    "FILE": "3880356",
    "TLE_LINE0": "0 JASON 3",
    "TLE_LINE1": "1 41240U 16002A   23095.24595473 -.00000048  00000-0  54823-4 0  9997",
    "TLE_LINE2": "2 41240  66.0434  43.0125 0007953 274.0222  85.9884 12.80928007337422",
    "OBJECT_ID": "2016-002A",
    "OBJECT_NUMBER": "41240",
    "SEMIMAJOR_AXIS": "7715.878",
    "PERIOD": "112.418",
    "APOGEE": "1343.880",
    "PERIGEE": "1331.607",
    "DECAYED": "0"
  },
  {
    "COMMENT": "GENERATED VIA SPACETRACK.ORG API",
    "ORIGINATOR": "18 SPCS",
    "NORAD_CAT_ID": "41240",
    "OBJECT_NAME": "JASON 3",
    "OBJECT_TYPE": "PAYLOAD",
    "CLASSIFICATION_TYPE": "U",
    "INTLDES": "16002A",
    "EPOCH": "2023-04-05 13:23:53",
    "EPOCH_MICROSECONDS": "575008",
    "MEAN_MOTION": "12.80928026",
    "ECCENTRICITY": "0.000795",
    "INCLINATION": "66.0434",
    "RA_OF_ASC_NODE": "42.3638",
    "ARG_OF_PERICENTER": "274.0398",
    "MEAN_ANOMALY": "85.9708",
    "EPHEMERIS_TYPE": "0",
    "ELEMENT_SET_NO": "999",
    "REV_AT_EPOCH": "33732",
    "BSTAR": "0.000054317",
    "MEAN_MOTION_DOT": "-0.00000049",
    "MEAN_MOTION_DDOT": "0",
    "FILE": "3880853",
    "TLE_LINE0": "0 JASON 3",
    "TLE_LINE1": "1 41240U 16002A   23095.55825897 -.00000049  00000-0  54317-4 0  9996",
    "TLE_LINE2": "2 41240  66.0434  42.3638 0007950 274.0398  85.9708 12.80928026337329",
    "OBJECT_ID": "2016-002A",
    "OBJECT_NUMBER": "41240",
    "SEMIMAJOR_AXIS": "7715.878",
    "PERIOD": "112.418",
    "APOGEE": "1343.877",
    "PERIGEE": "1331.609",
    "DECAYED": "0"
  },
  {
    "COMMENT": "GENERATED VIA SPACETRACK.ORG API",
    "ORIGINATOR": "18 SPCS",
    "NORAD_CAT_ID": "41240",
    "OBJECT_NAME": "JASON 3",
    "OBJECT_TYPE": "PAYLOAD",
    "CLASSIFICATION_TYPE": "U",
    "INTLDES": "16002A",
    "EPOCH": "2023-04-05 20:53:36",
    "EPOCH_MICROSECONDS": "663072",
    "MEAN_MOTION": "12.80928016",
    "ECCENTRICITY": "0.0007947",
    "INCLINATION": "66.0435",
    "RA_OF_ASC_NODE": "41.7152",
    "ARG_OF_PERICENTER": "274.0237",
    "MEAN_ANOMALY": "85.987",
    "EPHEMERIS_TYPE": "0",
    "ELEMENT_SET_NO": "999",
    "REV_AT_EPOCH": "33736",
    "BSTAR": "0.0000089026",
    "MEAN_MOTION_DOT": "-0.00000059",
    "MEAN_MOTION_DDOT": "0",
    "FILE": "3881153",
    "TLE_LINE0": "0 JASON 3",
    "TLE_LINE1": "1 41240U 16002A   23095.87056323 -.00000059  00000-0  89026-5 0  9998",
    "TLE_LINE2": "2 41240  66.0435  41.7152 0007947 274.0237  85.9870 12.80928016337365",
    "OBJECT_ID": "2016-002A",
    "OBJECT_NUMBER": "41240",
    "SEMIMAJOR_AXIS": "7715.878",
    "PERIOD": "112.418",
    "APOGEE": "1343.875",
    "PERIGEE": "1331.611",
    "DECAYED": "0"
  },
  {
    "COMMENT": "GENERATED VIA SPACETRACK.ORG API",
    "ORIGINATOR": "18 SPCS",
    "NORAD_CAT_ID": "41240",
    "OBJECT_NAME": "JASON 3",
    "OBJECT_TYPE": "PAYLOAD",
    "CLASSIFICATION_TYPE": "U",
    "INTLDES": "16002A",
    "EPOCH": "2023-04-06 10:00:37",
    "EPOCH_MICROSECONDS": "62432",
    "MEAN_MOTION": "12.80928077",
    "ECCENTRICITY": "0.0007939",
    "INCLINATION": "66.0436",
    "RA_OF_ASC_NODE": "40.5802",
    "ARG_OF_PERICENTER": "274.0437",
    "MEAN_ANOMALY": "85.9671",
    "EPHEMERIS_TYPE": "0",
    "ELEMENT_SET_NO": "999",
    "REV_AT_EPOCH": "33757",
    "BSTAR": "0.000052766",
    "MEAN_MOTION_DOT": "-0.00000049",
    "MEAN_MOTION_DDOT": "0",
    "FILE": "3881589",
    "TLE_LINE0": "0 JASON 3",
    "TLE_LINE1": "1 41240U 16002A   23096.41709563 -.00000049  00000-0  52766-4 0  9999",
    "TLE_LINE2": "2 41240  66.0436  40.5802 0007939 274.0437  85.9671 12.80928077337577",
    "OBJECT_ID": "2016-002A",
    "OBJECT_NUMBER": "41240",
    "SEMIMAJOR_AXIS": "7715.878",
    "PERIOD": "112.418",
    "APOGEE": "1343.869",
    "PERIGEE": "1331.617",
    "DECAYED": "0"
  },
  {
    "COMMENT": "GENERATED VIA SPACETRACK.ORG API",
    "ORIGINATOR": "18 SPCS",
    "NORAD_CAT_ID": "41240",
    "OBJECT_NAME": "JASON 3",
    "OBJECT_TYPE": "PAYLOAD",
    "CLASSIFICATION_TYPE": "U",
    "INTLDES": "16002A",
    "EPOCH": "2023-04-06 13:45:28",
    "EPOCH_MICROSECONDS": "606464",
    "MEAN_MOTION": "12.80928084",
    "ECCENTRICITY": "0.0007937",
    "INCLINATION": "66.0436",
    "RA_OF_ASC_NODE": "40.2559",
    "ARG_OF_PERICENTER": "274.044",
    "MEAN_ANOMALY": "85.9668",
    "EPHEMERIS_TYPE": "0",
    "ELEMENT_SET_NO": "999",
    "REV_AT_EPOCH": "33745",
    "BSTAR": "0.00005884",
    "MEAN_MOTION_DOT": "-0.00000047",
    "MEAN_MOTION_DDOT": "0",
    "FILE": "3881771",
    "TLE_LINE0": "0 JASON 3",
    "TLE_LINE1": "1 41240U 16002A   23096.57324776 -.00000047  00000-0  58840-4 0  9992",
    "TLE_LINE2": "2 41240  66.0436  40.2559 0007937 274.0440  85.9668 12.80928084337456",
    "OBJECT_ID": "2016-002A",
    "OBJECT_NUMBER": "41240",
    "SEMIMAJOR_AXIS": "7715.878",
    "PERIOD": "112.418",
    "APOGEE": "1343.867",
    "PERIGEE": "1331.619",
    "DECAYED": "0"
  },
  {
    "COMMENT": "GENERATED VIA SPACETRACK.ORG API",
    "ORIGINATOR": "18 SPCS",
    "NORAD_CAT_ID": "41240",
    "OBJECT_NAME": "JASON 3",
    "OBJECT_TYPE": "PAYLOAD",
    "CLASSIFICATION_TYPE": "U",
    "INTLDES": "16002A",
    "EPOCH": "2023-04-06 21:15:11",
    "EPOCH_MICROSECONDS": "691072",
    "MEAN_MOTION": "12.80928128",
    "ECCENTRICITY": "0.0007927",
    "INCLINATION": "66.0436",
    "RA_OF_ASC_NODE": "39.6073",
    "ARG_OF_PERICENTER": "274.0283",
    "MEAN_ANOMALY": "85.9826",
    "EPHEMERIS_TYPE": "0",
    "ELEMENT_SET_NO": "999",
    "REV_AT_EPOCH": "33749",
    "BSTAR": "0.000086832",
    "MEAN_MOTION_DOT": "-0.00000041",
    "MEAN_MOTION_DDOT": "0",
    "FILE": "3882049",
    "TLE_LINE0": "0 JASON 3",
    "TLE_LINE1": "1 41240U 16002A   23096.88555198 -.00000041  00000-0  86832-4 0  9996",
    "TLE_LINE2": "2 41240  66.0436  39.6073 0007927 274.0283  85.9826 12.80928128337492",
    "OBJECT_ID": "2016-002A",
    "OBJECT_NUMBER": "41240",
    "SEMIMAJOR_AXIS": "7715.878",
    "PERIOD": "112.418",
    "APOGEE": "1343.859",
    "PERIGEE": "1331.626",
    "DECAYED": "0"
  },
  {
    "COMMENT": "GENERATED VIA SPACETRACK.ORG API",
    "ORIGINATOR": "18 SPCS",
    "NORAD_CAT_ID": "41240",
    "OBJECT_NAME": "JASON 3",
    "OBJECT_TYPE": "PAYLOAD",
    "CLASSIFICATION_TYPE": "U",
    "INTLDES": "16002A",
    "EPOCH": "2023-04-07 12:14:37",
    "EPOCH_MICROSECONDS": "863744",
    "MEAN_MOTION": "12.80928151",
    "ECCENTRICITY": "0.0007923",
    "INCLINATION": "66.0437",
    "RA_OF_ASC_NODE": "38.31",
    "ARG_OF_PERICENTER": "274.0502",
    "MEAN_ANOMALY": "85.9608",
    "EPHEMERIS_TYPE": "0",
    "ELEMENT_SET_NO": "999",
    "REV_AT_EPOCH": "33771",
    "BSTAR": "0.00012499",
    "MEAN_MOTION_DOT": "-0.00000032",
    "MEAN_MOTION_DDOT": "0",
    "FILE": "3882452",
    "TLE_LINE0": "0 JASON 3",
    "TLE_LINE1": "1 41240U 16002A   23097.51016046 -.00000032  00000-0  12499-3 0  9998",
    "TLE_LINE2": "2 41240  66.0437  38.3100 0007923 274.0502  85.9608 12.80928151337719",
    "OBJECT_ID": "2016-002A",
    "OBJECT_NUMBER": "41240",
    "SEMIMAJOR_AXIS": "7715.878",
    "PERIOD": "112.418",
    "APOGEE": "1343.856",
    "PERIGEE": "1331.629",
    "DECAYED": "0"
  },
  {
    "COMMENT": "GENERATED VIA SPACETRACK.ORG API",
    "ORIGINATOR": "18 SPCS",
    "NORAD_CAT_ID": "41240",
    "OBJECT_NAME": "JASON 3",
    "OBJECT_TYPE": "PAYLOAD",
    "CLASSIFICATION_TYPE": "U",
    "INTLDES": "16002A",
    "EPOCH": "2023-04-07 14:07:03",
    "EPOCH_MICROSECONDS": "635328",
    "MEAN_MOTION": "12.80928144",
    "ECCENTRICITY": "0.0007922",
    "INCLINATION": "66.0438",
    "RA_OF_ASC_NODE": "38.1479",
    "ARG_OF_PERICENTER": "274.0389",
    "MEAN_ANOMALY": "85.9721",
    "EPHEMERIS_TYPE": "0",
    "ELEMENT_SET_NO": "999",
    "REV_AT_EPOCH": "33758",
    "BSTAR": "0.000102",
    "MEAN_MOTION_DOT": "-0.00000038",
    "MEAN_MOTION_DDOT": "0",
    "FILE": "3882626",
    "TLE_LINE0": "0 JASON 3",
    "TLE_LINE1": "1 41240U 16002A   23097.58823652 -.00000038  00000-0  10200-3 0  9998",
    "TLE_LINE2": "2 41240  66.0438  38.1479 0007922 274.0389  85.9721 12.80928144337582",
    "OBJECT_ID": "2016-002A",
    "OBJECT_NUMBER": "41240",
    "SEMIMAJOR_AXIS": "7715.878",
    "PERIOD": "112.418",
    "APOGEE": "1343.855",
    "PERIGEE": "1331.630",
    "DECAYED": "0"
  }
]